NORAD_CAT_ID,OBJECT_NAME,OBJECT_TYPE,EPOCH,MEAN_MOTION,ECCENTRICITY,INCLINATION,RA_OF_ASC_NODE,ARG_OF_PERICENTER,MEAN_ANOMALY,BSTAR,MEAN_MOTION_DOT,MEAN_MOTION_DDOT,TLE_LINE0,TLE_LINE1,TLE_LINE2,SEMIMAJOR_AXIS,PERIOD,APOGEE,PERIGEE,DECAYED
50167.0,STARLINK-3271,PAYLOAD,2022-02-13 14:00:01,15.33252613,0.00016,53.2174,87.4527,41.6437,283.7187,-0.021675,-0.00656524,0.0,0 STARLINK-3271,1 50167U 21125M   22044.58334491 -.00656524  00000-0 -21675-1 0  9991,2 50167  53.2174  87.4527 0001600  41.6437 283.7187 15.33252613  3660,6844.253000000002,93.918,467.213,465.023,0.0
50167.0,STARLINK-3271,PAYLOAD,2022-02-13 22:00:00,15.32681154,0.0001745,53.2179,85.8976,28.1288,337.939,-0.017141,-0.00512969,0.0,0 STARLINK-3271,1 50167U 21125M   22044.91667824 -.00512969  00000-0 -17141-1 0  9994,2 50167  53.2179  85.8976 0001745  28.1288 337.9390 15.32681154 11807,6845.954000000002,93.953,469.013,466.624,0.0
50167.0,STARLINK-3271,PAYLOAD,2022-02-14 06:00:00,15.32236078,0.0001623,53.2179,84.34700000000002,45.4806,0.6641,-0.018628,-0.00547176,0.0,0 STARLINK-3271,1 50167U 21125M   22045.25001157 -.00547176  00000-0 -18628-1 0  9992,2 50167  53.2179  84.3470 0001623  45.4806   0.6641 15.32236078 11852,6847.279,93.98,470.256,468.033,0.0
50167.0,STARLINK-3271,PAYLOAD,2022-02-14 14:00:01,15.31852717,0.0001679,53.2173,82.8003,38.4715,47.1466,-0.022652,-0.0065645,0.0,0 STARLINK-3271,1 50167U 21125M   22045.58334491 -.00656450  00000-0 -22652-1 0  9996,2 50167  53.2173  82.8003 0001679  38.4715  47.1466 15.31852717  3667,6848.422,94.004,471.437,469.137,0.0
50167.0,STARLINK-3271,PAYLOAD,2022-02-14 20:00:01,15.31505429,0.00018,53.2176,81.6371,32.0119,352.8819,-0.023092,-0.0066157,0.0,0 STARLINK-3271,1 50167U 21125M   22045.83334491 -.00661570  00000-0 -23092-1 0  9992,2 50167  53.2176  81.6371 0001800  32.0119 352.8819 15.31505429 11942,6849.456999999999,94.025,472.555,470.089,0.0
50167.0,STARLINK-3271,PAYLOAD,2022-02-15 14:00:01,15.30364866,0.0001825,53.2174,78.1562,44.6218,156.2547,-0.019215,-0.00533284,0.0,0 STARLINK-3271,1 50167U 21125M   22046.58334491 -.00533284  00000-0 -19215-1 0  9997,2 50167  53.2174  78.1562 0001825  44.6218 156.2547 15.30364866  3637,6852.86,94.095,475.976,473.474,0.0
50167.0,STARLINK-3271,PAYLOAD,2022-02-15 22:00:01,15.29986551,0.0001675999999999,53.2174,76.6103,45.0608,193.1142,-0.024019,-0.006566,0.0,0 STARLINK-3271,1 50167U 21125M   22046.91668981 -.00656600  00000-0 -24019-1 0  9994,2 50167  53.2174  76.6103 0001676  45.0608 193.1142 15.29986551 12116,6853.989000000001,94.118,477.003,474.706,0.0
50167.0,STARLINK-3271,PAYLOAD,2022-02-16 14:00:01,15.29055349,0.0001505,53.2173,73.5248,48.1019,262.8894,-0.024831,-0.00659262,0.0,0 STARLINK-3271,1 50167U 21125M   22047.58334491 -.00659262  00000-0 -24831-1 0  9993,2 50167  53.2173  73.5248 0001505  48.1019 262.8894 15.29055349  3651,6856.772,94.176,479.669,477.605,0.0
50167.0,STARLINK-3271,PAYLOAD,2022-02-16 22:00:00,15.28475607,0.0001719,53.2178,71.9795,29.5585,317.0965,-0.019174,-0.00503884,0.0,0 STARLINK-3271,1 50167U 21125M   22047.91667824 -.00503884  00000-0 -19174-1 0  9991,2 50167  53.2178  71.9795 0001719  29.5585 317.0965 15.28475607 12264,6858.505999999999,94.212,481.55,479.192,0.0
50167.0,STARLINK-3271,PAYLOAD,2022-02-17 06:00:00,15.28020969,0.0001545,53.218,70.4395,39.3727,342.3149,-0.020111,-0.00520025,0.0,0 STARLINK-3271,1 50167U 21125M   22048.25001157 -.00520025  00000-0 -20111-1 0  9999,2 50167  53.2180  70.4395 0001545  39.3727 342.3149 15.28020969 12319,6859.866,94.24,482.791,480.671,0.0
50167.0,STARLINK-3271,PAYLOAD,2022-02-17 14:00:01,15.27600602,0.0001759,53.2174,68.9006,35.4315,20.7065,-0.022743,-0.00582525,0.0,0 STARLINK-3271,1 50167U 21125M   22048.58334491 -.00582525  00000-0 -22743-1 0  9991,2 50167  53.2174  68.9006 0001759  35.4315  20.7065 15.27600602 12366,6861.124,94.265,484.196,481.783,0.0
50167.0,STARLINK-3271,PAYLOAD,2022-02-17 22:00:00,15.271877300000002,0.0001783,53.2174,67.3616,35.1699,54.86,-0.026249,-0.00658154,0.0,0 STARLINK-3271,1 50167U 21125M   22048.91667824 -.00658154  00000-0 -26249-1 0  9994,2 50167  53.2174  67.3616 0001783  35.1699  54.8600 15.27187730  3652,6862.361,94.291,485.45,483.002,0.0
50167.0,STARLINK-3271,PAYLOAD,2022-02-18 06:00:00,15.26650157,0.0001786999999999,53.2178,65.8236,43.1582,80.2692,-0.022704,-0.00565974,0.0,0 STARLINK-3271,1 50167U 21125M   22049.25001157 -.00565974  00000-0 -22704-1 0  9992,2 50167  53.2178  65.8236 0001787  43.1582  80.2692 15.26650157 12472,6863.972,94.324,487.06300000000016,484.61,0.0
50167.0,STARLINK-3271,PAYLOAD,2022-02-18 14:00:01,15.26255122,0.000177,53.2172,64.2891,41.343,114.84,-0.027012,-0.00658297,0.0,0 STARLINK-3271,1 50167U 21125M   22049.58334491 -.00658297  00000-0 -27012-1 0  9996,2 50167  53.2172  64.2891 0001770  41.3430 114.8400 15.26255122  3665,6865.156,94.349,488.236,485.806,0.0
50167.0,STARLINK-3271,PAYLOAD,2022-02-18 20:00:01,15.25904263,0.000178,53.2175,63.136,36.1065,54.3075,-0.027252,-0.00657195,0.0,0 STARLINK-3271,1 50167U 21125M   22049.83334491 -.00657195  00000-0 -27252-1 0  9996,2 50167  53.2175  63.1360 0001780  36.1065  54.3075 15.25904263 12554,6866.208000000001,94.37,489.296,486.851,0.0
50167.0,STARLINK-3271,PAYLOAD,2022-02-19 14:00:01,15.2475018,0.0001692,53.2172,59.6844,42.7335,208.5352,-0.021976,-0.00514844,0.0,0 STARLINK-3271,1 50167U 21125M   22050.58334491 -.00514844  00000-0 -21976-1 0  9990,2 50167  53.2172  59.6844 0001692  42.7335 208.5352 15.24750180  3628,6869.6730000000025,94.442,492.7,490.375,0.0
50167.0,STARLINK-3271,PAYLOAD,2022-02-19 22:00:00,15.24275734,0.000164,53.2175,58.1506,37.3137,244.5138,-0.021743,-0.00502979,0.0,0 STARLINK-3271,1 50167U 21125M   22050.91667824 -.00502979  00000-0 -21743-1 0  9994,2 50167  53.2175  58.1506 0001640  37.3137 244.5138 15.24275734 12723,6871.098000000001,94.471,494.09,491.836,0.0
50167.0,STARLINK-3271,PAYLOAD,2022-02-20 06:00:00,15.23832029,0.0001601,53.2178,56.6209,55.2615,256.5449,-0.023329,-0.00530541,0.0,0 STARLINK-3271,1 50167U 21125M   22051.25001157 -.00530541  00000-0 -23329-1 0  9991,2 50167  53.2178  56.6209 0001601  55.2615 256.5449 15.23832029 12774,6872.432,94.499,495.397,493.197,0.0
50167.0,STARLINK-3271,PAYLOAD,2022-02-20 14:00:01,15.23375606,0.0001759,53.2172,55.091,41.289,299.9447,-0.02428,-0.00549432,0.0,0 STARLINK-3271,1 50167U 21125M   22051.58334491 -.00549432  00000-0 -24280-1 0  9993,2 50167  53.2172  55.0910 0001759  41.2890 299.9447 15.23375606 12822,6873.805,94.527,496.879,494.46,0.0
50167.0,STARLINK-3271,PAYLOAD,2022-02-20 22:00:00,15.22938155,0.0001891,53.2176,53.5611,31.1608,338.9289,-0.026355,-0.00586175,0.0,0 STARLINK-3271,1 50167U 21125M   22051.91667824 -.00586175  00000-0 -26355-1 0  9999,2 50167  53.2176  53.5611 0001891  31.1608 338.9289 15.22938155 12875,6875.121,94.554,498.286,495.686,0.0
50167.0,STARLINK-3271,PAYLOAD,2022-02-21 06:00:00,15.22457072,0.0001721999999999,53.2178,52.0346,45.0896,353.3194,-0.02583,-0.00567548,0.0,0 STARLINK-3271,1 50167U 21125M   22052.25001157 -.00567548  00000-0 -25830-1 0  9998,2 50167  53.2178  52.0346 0001722  45.0896 353.3194 15.22457072 12928,6876.569,94.584,499.61800000000005,497.25,0.0
50167.0,STARLINK-3271,PAYLOAD,2022-02-21 14:00:01,15.21981551,0.0001712,53.2173,50.5079,36.0314,30.1343,-0.025644,-0.005563,0.0,0 STARLINK-3271,1 50167U 21125M   22052.58334491 -.00556300  00000-0 -25644-1 0  9991,2 50167  53.2173  50.5079 0001712  36.0314  30.1343 15.21981551 12977,6878.001,94.613,501.044,498.689,0.0
50167.0,STARLINK-3271,PAYLOAD,2022-02-21 22:00:00,15.21491262,0.0001972,53.2174,48.9806,28.9389,64.4316,-0.024484,-0.00520144,0.0,0 STARLINK-3271,1 50167U 21125M   22052.91667824 -.00520144  00000-0 -24484-1 0  9995,2 50167  53.2174  48.9806 0001972  28.9389  64.4316 15.21491262 13029,6879.479,94.644,502.7,499.987,0.0
50167.0,STARLINK-3271,PAYLOAD,2022-02-22 04:00:00,15.21239898,0.0001918,53.2176,47.8402,31.8144,351.5278,-0.031424,-0.00659019,0.0,0 STARLINK-3271,1 50167U 21125M   22053.16667824 -.00659019  00000-0 -31424-1 0  9999,2 50167  53.2176  47.8402 0001918  31.8144 351.5278 15.21239898 13069,6880.236999999999,94.66,503.421,500.782,0.0
50167.0,STARLINK-3271,PAYLOAD,2022-02-22 14:00:01,15.20655835,0.0001789,53.2173,45.9357,42.0301,103.9866,-0.031889,-0.0065747,0.0,0 STARLINK-3271,1 50167U 21125M   22053.58334491 -.00657470  00000-0 -31889-1 0  9990,2 50167  53.2173  45.9357 0001789  42.0301 103.9866 15.20655835  3646,6881.998000000001,94.696,505.094,502.632,0.0
50167.0,STARLINK-3271,PAYLOAD,2022-02-22 22:00:00,15.201902800000004,0.0001913,53.2174,44.4122,38.9681,132.5576,-0.032434,-0.00659488,0.0,0 STARLINK-3271,1 50167U 21125M   22053.91667824 -.00659488  00000-0 -32434-1 0  9994,2 50167  53.2174  44.4122 0001913  38.9681 132.5576 15.20190280  3649,6883.403,94.725,506.585,503.951,0.0
50167.0,STARLINK-3271,PAYLOAD,2022-02-23 06:00:00,15.19722179,0.0002109,53.2174,42.8927,35.3198,161.1535,-0.032754,-0.00657134,0.0,0 STARLINK-3271,1 50167U 21125M   22054.25001157 -.00657134  00000-0 -32754-1 0  9994,2 50167  53.2174  42.8927 0002109  35.3198 161.1535 15.19722179 13231,6884.816999999999,94.754,508.134,505.23,0.0
50167.0,STARLINK-3271,PAYLOAD,2022-02-23 14:00:01,15.19256905,0.0001819,53.2173,41.3719,42.7833,178.0772,-0.033307,-0.0066621,0.0,0 STARLINK-3271,1 50167U 21125M   22054.58334491 -.00666210  00000-0 -33307-1 0  9990,2 50167  53.2173  41.3719 0001819  42.7833 178.0772 15.19256905  3663,6886.222,94.783,509.34,506.835,0.0
50167.0,STARLINK-3271,PAYLOAD,2022-02-23 22:00:00,15.18789805,0.0001911,53.2174,39.8516,39.3215,205.3665,-0.033701,-0.00665075,0.0,0 STARLINK-3271,1 50167U 21125M   22054.91667824 -.00665075  00000-0 -33701-1 0  9992,2 50167  53.2174  39.8516 0001911  39.3215 205.3665 15.18789805  3664,6887.634,94.812,510.815,508.1830000000001,0.0
